GLOBALSTAR M069         
1 31573U 07020C   26178.32626944 -.00000055  00000+0  34441-3 0  9997
2 31573  52.0005 223.4292 0002107 170.3708 271.9290 12.23471575880040
GLOBALSTAR M072         
1 31574U 07020D   26178.04341633 -.00000088  00000+0 -51335-4 0  9995
2 31574  51.9937  74.0056 0001523 356.4163 110.1439 11.91658409876157
GLOBALSTAR M066         
1 32265U 07048C   26178.01050475 -.00000114  00000+0 -16498-3 0  9991
2 32265  51.9607  29.7130 0005627  64.7091 101.0223 12.30387001861433
GLOBALSTAR M079         
1 37188U 10054A   26178.04370218 -.00000104  00000+0  87913-6 0  9995
2 37188  52.0044  78.6654 0000923  45.6656  58.4079 12.62266235723792
GLOBALSTAR M074         
1 37189U 10054B   26177.90618595 -.00000112  00000+0 -47034-4 0  9991
2 37189  52.0015  78.3472 0000712  68.6000  10.5372 12.62261814724389
GLOBALSTAR M076         
1 37190U 10054C   26177.99731861 -.00000113  00000+0 -52710-4 0  9992
2 37190  52.0030  78.2738 0000940  61.8383 311.5181 12.62261873724112
GLOBALSTAR M077         
1 37191U 10054D   26178.21321604 -.00000071  00000+0  12430-3 0  9995
2 37191  51.9926 153.8471 0002571 190.9211 182.0962 11.67547984722317
GLOBALSTAR M075         
1 37192U 10054E   26178.08961024 -.00000112  00000+0 -47673-4 0  9992
2 37192  51.9939 120.0415 0000399  36.5440 336.5239 12.62267415723195
GLOBALSTAR M073         
1 37193U 10054F   26177.85238263 -.00000088  00000+0  87997-4 0  9993
2 37193  52.0075  34.8721 0001064  66.7635 306.2110 12.62266663725156
GLOBALSTAR M083         
1 37739U 11033A   26178.21695869 -.00000077  00000+0  14774-3 0  9997
2 37739  51.9881 341.9769 0000955  83.1555  88.7082 12.62263656694212
GLOBALSTAR M088         
1 37740U 11033B   26177.95308830 -.00000081  00000+0  12751-3 0  9996
2 37740  52.0203 249.2339 0000488 141.3830  29.2977 12.62268988689727
GLOBALSTAR M091         
1 37741U 11033C   26178.26258186 -.00000077  00000+0  14800-3 0  9992
2 37741  51.9969 211.2417 0000056 179.8349 258.7686 12.62264109690553
GLOBALSTAR M085         
1 37742U 11033D   26178.23495769 -.00000099  00000+0  24201-4 0  9991
2 37742  52.0099 162.6251 0000343 357.1152  15.9637 12.62264180691062
GLOBALSTAR M081         
1 37743U 11033E   26178.28133743 -.00000092  00000+0  65281-4 0  9994
2 37743  51.9930 164.9088 0000245  35.6366  68.0144 12.62265274691218
GLOBALSTAR M089         
1 37744U 11033F   26178.14259601 -.00000109  00000+0 -29640-4 0  9991
2 37744  51.9920 119.4879 0000497  78.4915 295.3457 12.62267414692047
GLOBALSTAR M084         
1 38040U 11080A   26178.19045459 -.00000096  00000+0  43480-4 0  9994
2 38040  52.0026 346.8286 0001097 102.1922  69.1514 12.62267649670029
GLOBALSTAR M080         
1 38041U 11080B   26178.24092374 -.00000084  00000+0  10791-3 0  9994
2 38041  52.0084 348.3967 0000421  77.4570  93.4421 12.62269764670151
GLOBALSTAR M082         
1 38042U 11080C   26178.09796858 -.00000101  00000+0  15421-4 0  9992
2 38042  52.0089 304.3343 0000474 106.2239  64.5730 12.62263746670840
GLOBALSTAR M092         
1 38043U 11080D   26178.30955020 -.00000091  00000+0  69362-4 0  9996
2 38043  52.0098  34.0875 0000823  77.7157  94.1440 12.62267146669323
GLOBALSTAR M090         
1 38044U 11080E   26178.04547911 -.00000108  00000+0 -20902-4 0  9991
2 38044  52.0134 298.4529 0000716 103.0447  68.3166 12.62269075670955
GLOBALSTAR M086         
1 38045U 11080F   26178.06693870 -.00000078  00000+0  14270-3 0  9995
2 38045  51.9910 298.3014 0001684  84.1397  86.4557 12.62287241670907
GLOBALSTAR M097         
1 39072U 13005A   26178.29851215 -.00000072  00000+0  17982-3 0  9996
2 39072  52.0015 212.5574 0000133  95.5752 264.5130 12.62271224618186
GLOBALSTAR M093         
1 39073U 13005B   26178.27166784 -.00000076  00000+0  15528-3 0  9993
2 39073  52.0075 205.9886 0000226  39.1091 320.9792 12.62266110618132
GLOBALSTAR M094         
1 39074U 13005C   26178.11316942 -.00000123  00000+0 -10499-3 0  9996
2 39074  51.9946 120.5766 0000656  28.5942 331.4961 12.62268484619728
GLOBALSTAR M096         
1 39075U 13005D   26178.28504282 -.00000100  00000+0  22405-4 0  9996
2 39075  52.0045 168.8632 0000282   1.5364 358.5504 12.62265660618660
GLOBALSTAR M078         
1 39076U 13005E   26177.94136910  .00000036  00000+0  78113-3 0  9991
2 39076  51.9865 253.9072 0000501 272.8083  87.2727 12.62259916617241
GLOBALSTAR M095         
1 39077U 13005F   26177.88890530 -.00000081  00000+0  12886-3 0  9996
2 39077  52.0073 251.6849 0000053  91.2536 268.8337 12.62263622617096
GLOBALSTAR M087         
1 52888U 22064A   26177.98128275 -.00000093  00000+0  60319-4 0  9995
2 52888  52.0010  32.6351 0000892  58.1235 301.9718 12.62269242192371
